[
    {
        "Altitude(m)": 622200.1501991408,
        "Argument of Periapsis(deg)": 0.0,
        "Eccentricity": 0.0,
        "Inclination(deg)": 60.0,
        "Latitude(deg)": -52.16265690247268,
        "Longitude(deg)": -97.63927429939213,
        "Mean Anomaly(deg)": 294.5455,
        "RAAN(deg)": 50.0,
        "Satellite Name": "Test1 238",
        "Satellite Number": 238,
        "Semi-Major Axis(m)": 6980739.136638005,
        "Time(s)": 0
    },
    {
        "Altitude(m)": 622058.3181817182,
        "Argument of Periapsis(deg)": 0.00010418945913296404,
        "Eccentricity": 0.0,
        "Inclination(deg)": 60.0,
        "Latitude(deg)": -51.79940683463828,
        "Longitude(deg)": -96.87121405282647,
        "Mean Anomaly(deg)": 295.1656061454619,
        "RAAN(deg)": 49.99957995086026,
        "Satellite Name": "Test1 238",
        "Satellite Number": 238,
        "Semi-Major Axis(m)": 6980739.136638005,
        "Time(s)": 10
    },
    {
        "Altitude(m)": 621913.7528634265,
        "Argument of Periapsis(deg)": 0.0002083789182659281,
        "Eccentricity": 0.0,
        "Inclination(deg)": 60.0,
        "Latitude(deg)": -51.430645164972034,
        "Longitude(deg)": -96.11613265597832,
        "Mean Anomaly(deg)": 295.78571229092364,
        "RAAN(deg)": 49.99915990172052,
        "Satellite Name": "Test1 238",
        "Satellite Number": 238,
        "Semi-Major Axis(m)": 6980739.136638005,
        "Time(s)": 20
    },
    {
        "Altitude(m)": 621766.5106835014,
        "Argument of Periapsis(deg)": 0.00031256837739889213,
        "Eccentricity": 0.0,
        "Inclination(deg)": 60.0,
        "Latitude(deg)": -51.05652901521856,
        "Longitude(deg)": -95.37384041077931,
        "Mean Anomaly(deg)": 296.4058184363855,
        "RAAN(deg)": 49.998739852580776,
        "Satellite Name": "Test1 238",
        "Satellite Number": 238,
        "Semi-Major Axis(m)": 6980739.136638005,
        "Time(s)": 30
    },
    {
        "Altitude(m)": 621616.6490975942,
        "Argument of Periapsis(deg)": 0.0004167578365318562,
        "Eccentricity": 0.0,
        "Inclination(deg)": 60.0,
        "Latitude(deg)": -50.677211816566356,
        "Longitude(deg)": -94.64413985353431,
        "Mean Anomaly(deg)": 297.02592458184733,
        "RAAN(deg)": 49.99831980344103,
        "Satellite Name": "Test1 238",
        "Satellite Number": 238,
        "Semi-Major Axis(m)": 6980739.136638005,
        "Time(s)": 40
    },
    {
        "Altitude(m)": 621464.22655317,
        "Argument of Periapsis(deg)": 0.0005209472956648203,
        "Eccentricity": 0.0,
        "Inclination(deg)": 60.0,
        "Latitude(deg)": -50.29284328264164,
        "Longitude(deg)": -93.92682780477823,
        "Mean Anomaly(deg)": 297.6460307273092,
        "RAAN(deg)": 49.99789975430129,
        "Satellite Name": "Test1 238",
        "Satellite Number": 238,
        "Semi-Major Axis(m)": 6980739.136638005,
        "Time(s)": 50
    },
    {
        "Altitude(m)": 621309.30246444,
        "Argument of Periapsis(deg)": 0.0006251367547977843,
        "Eccentricity": 0.0,
        "Inclination(deg)": 60.0,
        "Latitude(deg)": -49.903569397057574,
        "Longitude(deg)": -93.22169583690872,
        "Mean Anomaly(deg)": 298.266136872771,
        "RAAN(deg)": 49.997479705161545,
        "Satellite Name": "Test1 238",
        "Satellite Number": 238,
        "Semi-Major Axis(m)": 6980739.136638005,
        "Time(s)": 60
    },
    {
        "Altitude(m)": 621151.9371869104,
        "Argument of Periapsis(deg)": 0.0007293262139307483,
        "Eccentricity": 0.0,
        "Inclination(deg)": 60.0,
        "Latitude(deg)": -49.50953241411479,
        "Longitude(deg)": -92.52853067387518,
        "Mean Anomaly(deg)": 298.88624301823285,
        "RAAN(deg)": 49.997059656021804,
        "Satellite Name": "Test1 238",
        "Satellite Number": 238,
        "Semi-Major Axis(m)": 6980739.136638005,
        "Time(s)": 70
    },
    {
        "Altitude(m)": 620992.1919914522,
        "Argument of Periapsis(deg)": 0.0008335156730637124,
        "Eccentricity": 0.0,
        "Inclination(deg)": 60.0,
        "Latitude(deg)": -49.11087087132139,
        "Longitude(deg)": -91.84711603762622,
        "Mean Anomaly(deg)": 299.50634916369467,
        "RAAN(deg)": 49.996639606882056,
        "Satellite Name": "Test1 238",
        "Satellite Number": 238,
        "Semi-Major Axis(m)": 6980739.136638005,
        "Time(s)": 80
    },
    {
        "Altitude(m)": 620830.1290379912,
        "Argument of Periapsis(deg)": 0.0009377051321966765,
        "Eccentricity": 0.0,
        "Inclination(deg)": 60.0,
        "Latitude(deg)": -48.70771961247171,
        "Longitude(deg)": -91.17723291771395,
        "Mean Anomaly(deg)": 300.1264553091565,
        "RAAN(deg)": 49.996219557742315,
        "Satellite Name": "Test1 238",
        "Satellite Number": 238,
        "Semi-Major Axis(m)": 6980739.136638005,
        "Time(s)": 90
    },
    {
        "Altitude(m)": 620665.8113487944,
        "Argument of Periapsis(deg)": 0.0010418945913296407,
        "Eccentricity": 0.0,
        "Inclination(deg)": 60.0,
        "Latitude(deg)": -48.30020982010135,
        "Longitude(deg)": -90.51865977935304,
        "Mean Anomaly(deg)": 300.7465614546183,
        "RAAN(deg)": 49.99579950860257,
        "Satellite Name": "Test1 238",
        "Satellite Number": 238,
        "Semi-Major Axis(m)": 6980739.136638005,
        "Time(s)": 100
    },
    {
        "Altitude(m)": 620499.302781346,
        "Argument of Periapsis(deg)": 0.0011460840504626045,
        "Eccentricity": 0.0,
        "Inclination(deg)": 60.0,
        "Latitude(deg)": -47.888469056210525,
        "Longitude(deg)": -89.87117422542576,
        "Mean Anomaly(deg)": 301.3666676000801,
        "RAAN(deg)": 49.99537945946283,
        "Satellite Name": "Test1 238",
        "Satellite Number": 238,
        "Semi-Major Axis(m)": 6980739.136638005,
        "Time(s)": 110
    },
    {
        "Altitude(m)": 620330.6680008497,
        "Argument of Periapsis(deg)": 0.0012502735095955685,
        "Eccentricity": 0.0,
        "Inclination(deg)": 60.0,
        "Latitude(deg)": -47.47262131022519,
        "Longitude(deg)": -89.23455308943579,
        "Mean Anomaly(deg)": 301.986773745542,
        "RAAN(deg)": 49.99495941032309,
        "Satellite Name": "Test1 238",
        "Satellite Number": 238,
        "Semi-Major Axis(m)": 6980739.136638005,
        "Time(s)": 120
    },
    {
        "Altitude(m)": 620159.9724523755,
        "Argument of Periapsis(deg)": 0.0013544629687285324,
        "Eccentricity": 0.0,
        "Inclination(deg)": 60.0,
        "Latitude(deg)": -47.05278705324066,
        "Longitude(deg)": -88.6085724751353,
        "Mean Anomaly(deg)": 302.6068798910038,
        "RAAN(deg)": 49.99453936118335,
        "Satellite Name": "Test1 238",
        "Satellite Number": 238,
        "Semi-Major Axis(m)": 6980739.136638005,
        "Time(s)": 130
    },
    {
        "Altitude(m)": 619987.282332613,
        "Argument of Periapsis(deg)": 0.0014586524278614966,
        "Eccentricity": 0.0,
        "Inclination(deg)": 60.0,
        "Latitude(deg)": -46.62908329766537,
        "Longitude(deg)": -87.99300925859758,
        "Mean Anomaly(deg)": 303.22698603646575,
        "RAAN(deg)": 49.99411931204361,
        "Satellite Name": "Test1 238",
        "Satellite Number": 238,
        "Semi-Major Axis(m)": 6980739.136638005,
        "Time(s)": 140
    },
    {
        "Altitude(m)": 619812.6645613179,
        "Argument of Periapsis(deg)": 0.0015628418869944607,
        "Eccentricity": 0.0,
        "Inclination(deg)": 60.0,
        "Latitude(deg)": -46.20162366145485,
        "Longitude(deg)": -87.38764102989084,
        "Mean Anomaly(deg)": 303.84709218192745,
        "RAAN(deg)": 49.99369926290386,
        "Satellite Name": "Test1 238",
        "Satellite Number": 238,
        "Semi-Major Axis(m)": 6980739.136638005,
        "Time(s)": 150
    },
    {
        "Altitude(m)": 619636.1867523985,
        "Argument of Periapsis(deg)": 0.0016670313461274247,
        "Eccentricity": 0.0,
        "Inclination(deg)": 60.0,
        "Latitude(deg)": -45.77051843619301,
        "Longitude(deg)": -86.79224599011754,
        "Mean Anomaly(deg)": 304.46719832738927,
        "RAAN(deg)": 49.99327921376412,
        "Satellite Name": "Test1 238",
        "Satellite Number": 238,
        "Semi-Major Axis(m)": 6980739.136638005,
        "Time(s)": 160
    },
    {
        "Altitude(m)": 619457.917184676,
        "Argument of Periapsis(deg)": 0.0017712208052603888,
        "Eccentricity": 0.0,
        "Inclination(deg)": 60.0,
        "Latitude(deg)": -45.33587465834424,
        "Longitude(deg)": -86.20660431954218,
        "Mean Anomaly(deg)": 305.0873044728511,
        "RAAN(deg)": 49.99285916462438,
        "Satellite Name": "Test1 238",
        "Satellite Number": 238,
        "Semi-Major Axis(m)": 6980739.136638005,
        "Time(s)": 170
    },
    {
        "Altitude(m)": 619277.9247723395,
        "Argument of Periapsis(deg)": 0.001875410264393353,
        "Eccentricity": 0.0,
        "Inclination(deg)": 60.0,
        "Latitude(deg)": -44.89779618306045,
        "Longitude(deg)": -85.63049799383269,
        "Mean Anomaly(deg)": 305.70741061831296,
        "RAAN(deg)": 49.992439115484636,
        "Satellite Name": "Test1 238",
        "Satellite Number": 238,
        "Semi-Major Axis(m)": 6980739.136638005,
        "Time(s)": 180
    },
    {
        "Altitude(m)": 619096.2790351046,
        "Argument of Periapsis(deg)": 0.0019795997235263173,
        "Eccentricity": 0.0,
        "Inclination(deg)": 60.0,
        "Latitude(deg)": -44.456383759988576,
        "Longitude(deg)": -85.0637105639926,
        "Mean Anomaly(deg)": 306.3275167637747,
        "RAAN(deg)": 49.992019066344895,
        "Satellite Name": "Test1 238",
        "Satellite Number": 238,
        "Semi-Major Axis(m)": 6980739.136638005,
        "Time(s)": 190
    }
]